[{"OBJECT_NAME":"IRIDIUM 152","OBJECT_ID":"2018-047D","EPOCH":"2026-03-04T04:04:46.264224","MEAN_MOTION":14.34218534,"ECCENTRICITY":0.0002271,"INCLINATION":86.3984,"RA_OF_ASC_NODE":132.2496,"ARG_OF_PERICENTER":92.4322,"MEAN_ANOMALY":267.7134,"EPHEMERIS_TYPE":0,"CLASSIFICATION_TYPE":"U","NORAD_CAT_ID":43479,"ELEMENT_SET_NO":999,"REV_AT_EPOCH":40743,"BSTAR":6.8124e-5,"MEAN_MOTION_DOT":2.11e-6,"MEAN_MOTION_DDOT":0},{"OBJECT_NAME":"IRIDIUM 147","OBJECT_ID":"2018-047E","EPOCH":"2026-03-04T04:13:54.028128","MEAN_MOTION":14.34219812,"ECCENTRICITY":0.0002215,"INCLINATION":86.3987,"RA_OF_ASC_NODE":132.2503,"ARG_OF_PERICENTER":99.5645,"MEAN_ANOMALY":260.5801,"EPHEMERIS_TYPE":0,"CLASSIFICATION_TYPE":"U","NORAD_CAT_ID":43480,"ELEMENT_SET_NO":999,"REV_AT_EPOCH":40743,"BSTAR":8.7902e-5,"MEAN_MOTION_DOT":2.66e-6,"MEAN_MOTION_DDOT":0},{"OBJECT_NAME":"IRIDIUM 110","OBJECT_ID":"2018-047F","EPOCH":"2026-03-04T04:23:02.331168","MEAN_MOTION":14.34217964,"ECCENTRICITY":0.0002545,"INCLINATION":86.3988,"RA_OF_ASC_NODE":132.3363,"ARG_OF_PERICENTER":89.6044,"MEAN_ANOMALY":270.5443,"EPHEMERIS_TYPE":0,"CLASSIFICATION_TYPE":"U","NORAD_CAT_ID":43481,"ELEMENT_SET_NO":999,"REV_AT_EPOCH":40742,"BSTAR":1.6801e-5,"MEAN_MOTION_DOT":6.7e-7,"MEAN_MOTION_DDOT":0},{"OBJECT_NAME":"IRIDIUM 162","OBJECT_ID":"2018-047G","EPOCH":"2026-03-04T04:41:57.384384","MEAN_MOTION":14.43282589,"ECCENTRICITY":0.0002127,"INCLINATION":86.4508,"RA_OF_ASC_NODE":132.2706,"ARG_OF_PERICENTER":91.8978,"MEAN_ANOMALY":268.2467,"EPHEMERIS_TYPE":0,"CLASSIFICATION_TYPE":"U","NORAD_CAT_ID":43482,"ELEMENT_SET_NO":999,"REV_AT_EPOCH":40998,"BSTAR":0.0001264,"MEAN_MOTION_DOT":4.45e-6,"MEAN_MOTION_DDOT":0},{"OBJECT_NAME":"IRIDIUM 160","OBJECT_ID":"2018-061A","EPOCH":"2026-03-04T03:05:02.412096","MEAN_MOTION":14.34218807,"ECCENTRICITY":0.0002389,"INCLINATION":86.3923,"RA_OF_ASC_NODE":100.7438,"ARG_OF_PERICENTER":92.5825,"MEAN_ANOMALY":267.5644,"EPHEMERIS_TYPE":0,"CLASSIFICATION_TYPE":"U","NORAD_CAT_ID":43569,"ELEMENT_SET_NO":999,"REV_AT_EPOCH":39831,"BSTAR":4.7318e-5,"MEAN_MOTION_DOT":1.52e-6,"MEAN_MOTION_DDOT":0},{"OBJECT_NAME":"IRIDIUM 166","OBJECT_ID":"2018-061B","EPOCH":"2026-03-04T03:41:34.406880","MEAN_MOTION":14.34218546,"ECCENTRICITY":0.0002198,"INCLINATION":86.3919,"RA_OF_ASC_NODE":100.6848,"ARG_OF_PERICENTER":96.2502,"MEAN_ANOMALY":263.8944,"EPHEMERIS_TYPE":0,"CLASSIFICATION_TYPE":"U","NORAD_CAT_ID":43570,"ELEMENT_SET_NO":999,"REV_AT_EPOCH":39834,"BSTAR":4.9541e-5,"MEAN_MOTION_DOT":1.59e-6,"MEAN_MOTION_DDOT":0},{"OBJECT_NAME":"IRIDIUM 158","OBJECT_ID":"2018-061C","EPOCH":"2026-03-04T02:55:54.380352","MEAN_MOTION":14.34217643,"ECCENTRICITY":0.0002132,"INCLINATION":86.3923,"RA_OF_ASC_NODE":100.7085,"ARG_OF_PERICENTER":88.932,"MEAN_ANOMALY":271.212,"EPHEMERIS_TYPE":0,"CLASSIFICATION_TYPE":"U","NORAD_CAT_ID":43571,"ELEMENT_SET_NO":999,"REV_AT_EPOCH":39830,"BSTAR":2.7581e-5,"MEAN_MOTION_DOT":9.7e-7,"MEAN_MOTION_DDOT":0},{"OBJECT_NAME":"IRIDIUM 165","OBJECT_ID":"2018-061D","EPOCH":"2026-03-04T03:32:26.430432","MEAN_MOTION":14.34218148,"ECCENTRICITY":0.0002187,"INCLINATION":86.3918,"RA_OF_ASC_NODE":100.7412,"ARG_OF_PERICENTER":96.6615,"MEAN_ANOMALY":263.483,"EPHEMERIS_TYPE":0,"CLASSIFICATION_TYPE":"U","NORAD_CAT_ID":43572,"ELEMENT_SET_NO":999,"REV_AT_EPOCH":39833,"BSTAR":3.2978e-5,"MEAN_MOTION_DOT":1.12e-6,"MEAN_MOTION_DDOT":0},{"OBJECT_NAME":"IRIDIUM 155","OBJECT_ID":"2018-061E","EPOCH":"2026-03-04T02:37:38.427456","MEAN_MOTION":14.34217551,"ECCENTRICITY":0.0001953,"INCLINATION":86.392,"RA_OF_ASC_NODE":100.6316,"ARG_OF_PERICENTER":93.1938,"MEAN_ANOMALY":266.9481,"EPHEMERIS_TYPE":0,"CLASSIFICATION_TYPE":"U","NORAD_CAT_ID":43573,"ELEMENT_SET_NO":999,"REV_AT_EPOCH":39829,"BSTAR":-1.4091e-5,"MEAN_MOTION_DOT":-2.0e-7,"MEAN_MOTION_DDOT":0},{"OBJECT_NAME":"IRIDIUM 154","OBJECT_ID":"2018-061F","EPOCH":"2026-03-04T03:50:43.389888","MEAN_MOTION":14.34222099,"ECCENTRICITY":0.0002211,"INCLINATION":86.3924,"RA_OF_ASC_NODE":100.7394,"ARG_OF_PERICENTER":98.8083,"MEAN_ANOMALY":261.3363,"EPHEMERIS_TYPE":0,"CLASSIFICATION_TYPE":"U","NORAD_CAT_ID":43574,"ELEMENT_SET_NO":999,"REV_AT_EPOCH":39835,"BSTAR":0.00011349,"MEAN_MOTION_DOT":3.38e-6,"MEAN_MOTION_DDOT":0},{"OBJECT_NAME":"IRIDIUM 163","OBJECT_ID":"2018-061G","EPOCH":"2026-03-04T03:23:18.505824","MEAN_MOTION":14.34217643,"ECCENTRICITY":0.0002252,"INCLINATION":86.392,"RA_OF_ASC_NODE":100.666,"ARG_OF_PERICENTER":91.1027,"MEAN_ANOMALY":269.0427,"EPHEMERIS_TYPE":0,"CLASSIFICATION_TYPE":"U","NORAD_CAT_ID":43575,"ELEMENT_SET_NO":999,"REV_AT_EPOCH":39832,"BSTAR":4.5548e-6,"MEAN_MOTION_DOT":3.3e-7,"MEAN_MOTION_DDOT":0},{"OBJECT_NAME":"IRIDIUM 156","OBJECT_ID":"2018-061H","EPOCH":"2026-03-04T02:46:46.435008","MEAN_MOTION":14.3421795,"ECCENTRICITY":0.0002025,"INCLINATION":86.3921,"RA_OF_ASC_NODE":100.6837,"ARG_OF_PERICENTER":93.4156,"MEAN_ANOMALY":266.7272,"EPHEMERIS_TYPE":0,"CLASSIFICATION_TYPE":"U","NORAD_CAT_ID":43576,"ELEMENT_SET_NO":999,"REV_AT_EPOCH":39831,"BSTAR":1.4659e-5,"MEAN_MOTION_DOT":6.1e-7,"MEAN_MOTION_DDOT":0},{"OBJECT_NAME":"IRIDIUM 164","OBJECT_ID":"2018-061J","EPOCH":"2026-03-04T03:59:50.482464","MEAN_MOTION":14.34217794,"ECCENTRICITY":0.0002313,"INCLINATION":86.3922,"RA_OF_ASC_NODE":100.7011,"ARG_OF_PERICENTER":97.2682,"MEAN_ANOMALY":262.8777,"EPHEMERIS_TYPE":0,"CLASSIFICATION_TYPE":"U","NORAD_CAT_ID":43577,"ELEMENT_SET_NO":999,"REV_AT_EPOCH":39836,"BSTAR":0.00019754,"MEAN_MOTION_DOT":5.73e-6,"MEAN_MOTION_DDOT":0},{"OBJECT_NAME":"IRIDIUM 159","OBJECT_ID":"2018-061K","EPOCH":"2026-03-04T03:14:10.488768","MEAN_MOTION":14.34217526,"ECCENTRICITY":0.0002276,"INCLINATION":86.3921,"RA_OF_ASC_NODE":100.6531,"ARG_OF_PERICENTER":92.4039,"MEAN_ANOMALY":267.7417,"EPHEMERIS_TYPE":0,"CLASSIFICATION_TYPE":"U","NORAD_CAT_ID":43578,"ELEMENT_SET_NO":999,"REV_AT_EPOCH":39832,"BSTAR":-1.6767e-5,"MEAN_MOTION_DOT":-2.7e-7,"MEAN_MOTION_DDOT":0},{"OBJECT_NAME":"IRIDIUM 180","OBJECT_ID":"2019-002A","EPOCH":"2026-03-03T20:31:34.914144","MEAN_MOTION":14.34217979,"ECCENTRICITY":0.0002285,"INCLINATION":86.3964,"RA_OF_ASC_NODE":37.6041,"ARG_OF_PERICENTER":85.9043,"MEAN_ANOMALY":274.2413,"EPHEMERIS_TYPE":0,"CLASSIFICATION_TYPE":"U","NORAD_CAT_ID":43922,"ELEMENT_SET_NO":999,"REV_AT_EPOCH":37389,"BSTAR":1.6288e-5,"MEAN_MOTION_DOT":6.5e-7,"MEAN_MOTION_DDOT":0},{"OBJECT_NAME":"IRIDIUM 176","OBJECT_ID":"2019-002B","EPOCH":"2026-03-03T09:37:46.431840","MEAN_MOTION":14.7224338,"ECCENTRICITY":0.00031516,"INCLINATION":86.6095,"RA_OF_ASC_NODE":37.7509,"ARG_OF_PERICENTER":82.1159,"MEAN_ANOMALY":278.0416,"EPHEMERIS_TYPE":0,"CLASSIFICATION_TYPE":"U","NORAD_CAT_ID":43923,"ELEMENT_SET_NO":999,"REV_AT_EPOCH":38368,"BSTAR":0.0002130169,"MEAN_MOTION_DOT":1.368e-5,"MEAN_MOTION_DDOT":0},{"OBJECT_NAME":"IRIDIUM 168","OBJECT_ID":"2019-002C","EPOCH":"2026-03-03T20:22:26.548896","MEAN_MOTION":14.34220922,"ECCENTRICITY":0.0002213,"INCLINATION":86.3964,"RA_OF_ASC_NODE":37.6811,"ARG_OF_PERICENTER":86.6829,"MEAN_ANOMALY":273.462,"EPHEMERIS_TYPE":0,"CLASSIFICATION_TYPE":"U","NORAD_CAT_ID":43924,"ELEMENT_SET_NO":999,"REV_AT_EPOCH":37387,"BSTAR":0.00013824,"MEAN_MOTION_DOT":4.07e-6,"MEAN_MOTION_DDOT":0}]
