IRIDIUM 152             
1 43479U 18047D   26063.16997991  .00000211  00000+0  68124-4 0  9993
2 43479  86.3984 132.2496 0002271  92.4322 267.7134 14.34218534407431
IRIDIUM 147             
1 43480U 18047E   26063.17631977  .00000266  00000+0  87902-4 0  9990
2 43480  86.3987 132.2503 0002215  99.5645 260.5801 14.34219812407431
IRIDIUM 110             
1 43481U 18047F   26063.18266587  .00000067  00000+0  16801-4 0  9992
2 43481  86.3988 132.3363 0002545  89.6044 270.5443 14.34217964407425
IRIDIUM 162             
1 43482U 18047G   26063.19580306  .00000445  00000+0  12640-3 0  9998
2 43482  86.4508 132.2706 0002127  91.8978 268.2467 14.43282589409980
IRIDIUM 160             
1 43569U 18061A   26063.12850014  .00000152  00000+0  47318-4 0  9995
2 43569  86.3923 100.7438 0002389  92.5825 267.5644 14.34218807398312
IRIDIUM 166             
1 43570U 18061B   26063.15387045  .00000159  00000+0  49541-4 0  9996
2 43570  86.3919 100.6848 0002198  96.2502 263.8944 14.34218546398349
IRIDIUM 158             
1 43571U 18061C   26063.12215718  .00000097  00000+0  27581-4 0  9992
2 43571  86.3923 100.7085 0002132  88.9320 271.2120 14.34217643398305
IRIDIUM 165             
1 43572U 18061D   26063.14752813  .00000112  00000+0  32978-4 0  9991
2 43572  86.3918 100.7412 0002187  96.6615 263.4830 14.34218148398332
IRIDIUM 155             
1 43573U 18061E   26063.10947254 -.00000020  00000+0 -14091-4 0  9999
2 43573  86.3920 100.6316 0001953  93.1938 266.9481 14.34217551398290
IRIDIUM 154             
1 43574U 18061F   26063.16022442  .00000338  00000+0  11349-3 0  9991
2 43574  86.3924 100.7394 0002211  98.8083 261.3363 14.34222099398351
IRIDIUM 163             
1 43575U 18061G   26063.14118641  .00000033  00000+0  45548-5 0  9999
2 43575  86.3920 100.6660 0002252  91.1027 269.0427 14.34217643398324
IRIDIUM 156             
1 43576U 18061H   26063.11581522  .00000061  00000+0  14659-4 0  9998
2 43576  86.3921 100.6837 0002025  93.4156 266.7272 14.34217950398310
IRIDIUM 164             
1 43577U 18061J   26063.16655651  .00000573  00000+0  19754-3 0  9997
2 43577  86.3922 100.7011 0002313  97.2682 262.8777 14.34217794398361
IRIDIUM 159             
1 43578U 18061K   26063.13484362 -.00000027  00000+0 -16767-4 0  9992
2 43578  86.3921 100.6531 0002276  92.4039 267.7417 14.34217526398322
IRIDIUM 180             
1 43922U 19002A   26062.85526521  .00000065  00000+0  16288-4 0  9991
2 43922  86.3964  37.6041 0002285  85.9043 274.2413 14.34217979373895
IRIDIUM 176             
1 43923U 19002B   26062.40123185  .00001368  00000+0  21302-3 0  9991
2 43923  86.6095  37.7509 0003151  82.1159 278.0416 14.72243380383684
IRIDIUM 168             
1 43924U 19002C   26062.84891839  .00000407  00000+0  13824-3 0  9991
2 43924  86.3964  37.6811 0002213  86.6829 273.4620 14.34220922373874
